{"type": "FeatureCollection", "features": [ {"type": "Feature", "properties": {"norad_id": 44476, "name": "INTELSAT 39 (IS-39)", "group": "intelsat", "lat": 0.03470350593720421, "lon": 10.975295751322069, "alt_km": 35786.97073200695, "timestamp": "2025-12-02T15:49:06.851057+00:00", "meta": {"OBJECT_NAME": "INTELSAT 39 (IS-39)", "OBJECT_ID": "2019-049B", "EPOCH": "2025-12-01T21:58:38.459424", "MEAN_MOTION": 1.00276327, "ECCENTRICITY": 5.565e-05, "INCLINATION": 0.0163, "RA_OF_ASC_NODE": 308.3282, "ARG_OF_PERICENTER": 224.0067, "MEAN_ANOMALY": 290.3068, "EPHEMERIS_TYPE": 0, "CLASSIFICATION_TYPE": "U", "NORAD_CAT_ID": 44476, "ELEMENT_SET_NO": 999, "REV_AT_EPOCH": 2315, "BSTAR": 0, "MEAN_MOTION_DOT": 5.4e-07, "MEAN_MOTION_DDOT": 0}, "tle": {"line1": "1 44476U 19049B   25335.91572291  .00000054  00000+0  00000+0 0  9999", "line2": "2 44476   0.0163 308.3282 0000556 224.0067 290.3068  1.00276327 23157"}}, "geometry": {"type": "Point", "coordinates": [10.975295751322069, 0.03470350593720421]}}, {"type": "Feature", "properties": {"norad_id": 46114, "name": "GALAXY 30 (G-30)", "group": "intelsat", "lat": -0.0325575000197192, "lon": -176.00833938609964, "alt_km": 35781.73682634603, "timestamp": "2025-12-02T15:49:06.851069+00:00", "meta": {"OBJECT_NAME": "GALAXY 30 (G-30)", "OBJECT_ID": "2020-056C", "EPOCH": "2025-12-01T20:42:04.934304", "MEAN_MOTION": 1.0027242, "ECCENTRICITY": 0.0002369, "INCLINATION": 0.0148, "RA_OF_ASC_NODE": 292.7027, "ARG_OF_PERICENTER": 317.0993, "MEAN_ANOMALY": 6.6971, "EPHEMERIS_TYPE": 0, "CLASSIFICATION_TYPE": "U", "NORAD_CAT_ID": 46114, "ELEMENT_SET_NO": 999, "REV_AT_EPOCH": 1931, "BSTAR": 0, "MEAN_MOTION_DOT": 5.8e-07, "MEAN_MOTION_DDOT": 0}, "tle": {"line1": "1 46114U 20056C   25335.86255711  .00000058  00000+0  00000+0 0  9993", "line2": "2 46114   0.0148 292.7027 0002369 317.0993   6.6971  1.00272420 19313"}}, "geometry": {"type": "Point", "coordinates": [-176.00833938609964, -0.0325575000197192]}}, {"type": "Feature", "properties": {"norad_id": 54026, "name": "GALAXY 33 (G-33)", "group": "intelsat", "lat": -0.01975881236576745, "lon": 175.9979906409015, "alt_km": 35783.11562866822, "timestamp": "2025-12-02T15:49:06.851082+00:00", "meta": {"OBJECT_NAME": "GALAXY 33 (G-33)", "OBJECT_ID": "2022-128A", "EPOCH": "2025-12-02T05:52:09.170112", "MEAN_MOTION": 1.00272337, "ECCENTRICITY": 0.00019361, "INCLINATION": 0.0132, "RA_OF_ASC_NODE": 330.4364, "ARG_OF_PERICENTER": 275.7638, "MEAN_ANOMALY": 140.1968, "EPHEMERIS_TYPE": 0, "CLASSIFICATION_TYPE": "U", "NORAD_CAT_ID": 54026, "ELEMENT_SET_NO": 999, "REV_AT_EPOCH": 1176, "BSTAR": 0, "MEAN_MOTION_DOT": 1e-06, "MEAN_MOTION_DDOT": 0}, "tle": {"line1": "1 54026U 22128A   25336.24455058  .00000100  00000+0  00000+0 0  9993", "line2": "2 54026   0.0132 330.4364 0001936 275.7638 140.1968  1.00272337 11764"}}, "geometry": {"type": "Point", "coordinates": [175.9979906409015, -0.01975881236576745]}}, {"type": "Feature", "properties": {"norad_id": 54027, "name": "GALAXY 34 (G-34)", "group": "intelsat", "lat": -0.027247666618140882, "lon": 179.9991500749856, "alt_km": 35783.27602901027, "timestamp": "2025-12-02T15:49:06.851094+00:00", "meta": {"OBJECT_NAME": "GALAXY 34 (G-34)", "OBJECT_ID": "2022-128B", "EPOCH": "2025-12-01T20:45:55.897056", "MEAN_MOTION": 1.00272949, "ECCENTRICITY": 0.00014277, "INCLINATION": 0.015, "RA_OF_ASC_NODE": 316.5626, "ARG_OF_PERICENTER": 289.8338, "MEAN_ANOMALY": 7.0638, "EPHEMERIS_TYPE": 0, "CLASSIFICATION_TYPE": "U", "NORAD_CAT_ID": 54027, "ELEMENT_SET_NO": 999, "REV_AT_EPOCH": 1193, "BSTAR": 0, "MEAN_MOTION_DOT": 8e-07, "MEAN_MOTION_DDOT": 0}, "tle": {"line1": "1 54027U 22128B   25335.86523029  .00000080  00000+0  00000+0 0  9992", "line2": "2 54027   0.0150 316.5626 0001427 289.8338   7.0638  1.00272949 11932"}}, "geometry": {"type": "Point", "coordinates": [179.9991500749856, -0.027247666618140882]}}, {"type": "Feature", "properties": {"norad_id": 54243, "name": "GALAXY 31 (G-31)", "group": "intelsat", "lat": -0.025735075225561895, "lon": -172.03573157349416, "alt_km": 35784.32863409169, "timestamp": "2025-12-02T15:49:06.851106+00:00", "meta": {"OBJECT_NAME": "GALAXY 31 (G-31)", "OBJECT_ID": "2022-153A", "EPOCH": "2025-12-02T04:38:55.032864", "MEAN_MOTION": 1.0027149, "ECCENTRICITY": 0.00020805, "INCLINATION": 0.0124, "RA_OF_ASC_NODE": 328.3348, "ARG_OF_PERICENTER": 297.9075, "MEAN_ANOMALY": 113.7657, "EPHEMERIS_TYPE": 0, "CLASSIFICATION_TYPE": "U", "NORAD_CAT_ID": 54243, "ELEMENT_SET_NO": 999, "REV_AT_EPOCH": 515, "BSTAR": 0, "MEAN_MOTION_DOT": 0, "MEAN_MOTION_DDOT": 0}, "tle": {"line1": "1 54243U 22153A   25336.19369251  .00000000  00000+0  00000+0 0  9994", "line2": "2 54243   0.0124 328.3348 0002080 297.9075 113.7657  1.00271490  5152"}}, "geometry": {"type": "Point", "coordinates": [-172.03573157349416, -0.025735075225561895]}}, {"type": "Feature", "properties": {"norad_id": 54244, "name": "GALAXY 32 (G-32)", "group": "intelsat", "lat": -0.032928541892332644, "lon": -142.0120683569001, "alt_km": 35785.78459045476, "timestamp": "2025-12-02T15:49:06.851118+00:00", "meta": {"OBJECT_NAME": "GALAXY 32 (G-32)", "OBJECT_ID": "2022-153B", "EPOCH": "2025-12-01T21:56:31.607808", "MEAN_MOTION": 1.00270413, "ECCENTRICITY": 0.00024074, "INCLINATION": 0.0099, "RA_OF_ASC_NODE": 319.0014, "ARG_OF_PERICENTER": 345.1188, "MEAN_ANOMALY": 5.0458, "EPHEMERIS_TYPE": 0, "CLASSIFICATION_TYPE": "U", "NORAD_CAT_ID": 54244, "ELEMENT_SET_NO": 999, "REV_AT_EPOCH": 1116, "BSTAR": 0, "MEAN_MOTION_DOT": -1.53e-06, "MEAN_MOTION_DDOT": 0}, "tle": {"line1": "1 54244U 22153B   25335.91425472 -.00000153  00000+0  00000+0 0  9992", "line2": "2 54244   0.0099 319.0014 0002407 345.1188   5.0458  1.00270413 11169"}}, "geometry": {"type": "Point", "coordinates": [-142.0120683569001, -0.032928541892332644]}}, {"type": "Feature", "properties": {"norad_id": 54741, "name": "GALAXY 35 (G-35)", "group": "intelsat", "lat": -0.040195252712140965, "lon": -144.13095320362083, "alt_km": 35778.23820043098, "timestamp": "2025-12-02T15:49:06.851130+00:00", "meta": {"OBJECT_NAME": "GALAXY 35 (G-35)", "OBJECT_ID": "2022-170A", "EPOCH": "2025-12-02T04:46:54.266880", "MEAN_MOTION": 1.0026932, "ECCENTRICITY": 0.00028193, "INCLINATION": 0.0167, "RA_OF_ASC_NODE": 315.1995, "ARG_OF_PERICENTER": 304.9805, "MEAN_ANOMALY": 149.738, "EPHEMERIS_TYPE": 0, "CLASSIFICATION_TYPE": "U", "NORAD_CAT_ID": 54741, "ELEMENT_SET_NO": 999, "REV_AT_EPOCH": 1091, "BSTAR": 0, "MEAN_MOTION_DOT": 0, "MEAN_MOTION_DDOT": 0}, "tle": {"line1": "1 54741U 22170A   25336.19923920  .00000000  00000+0  00000+0 0  9995", "line2": "2 54741   0.0167 315.1995 0002819 304.9805 149.7380  1.00269320 10915"}}, "geometry": {"type": "Point", "coordinates": [-144.13095320362083, -0.040195252712140965]}}, {"type": "Feature", "properties": {"norad_id": 54742, "name": "GALAXY 36 (G-36)", "group": "intelsat", "lat": -0.029811238584787056, "lon": -139.98571634581444, "alt_km": 35784.313120941246, "timestamp": "2025-12-02T15:49:06.851141+00:00", "meta": {"OBJECT_NAME": "GALAXY 36 (G-36)", "OBJECT_ID": "2022-170B", "EPOCH": "2025-12-02T04:48:01.659744", "MEAN_MOTION": 1.00270609, "ECCENTRICITY": 5.537e-05, "INCLINATION": 0.0197, "RA_OF_ASC_NODE": 260.0894, "ARG_OF_PERICENTER": 344.5242, "MEAN_ANOMALY": 169.7091, "EPHEMERIS_TYPE": 0, "CLASSIFICATION_TYPE": "U", "NORAD_CAT_ID": 54742, "ELEMENT_SET_NO": 999, "REV_AT_EPOCH": 1079, "BSTAR": 0, "MEAN_MOTION_DOT": -1.64e-06, "MEAN_MOTION_DDOT": 0}, "tle": {"line1": "1 54742U 22170B   25336.20001921 -.00000164  00000+0  00000+0 0  9998", "line2": "2 54742   0.0197 260.0894 0000553 344.5242 169.7091  1.00270609 10792"}}, "geometry": {"type": "Point", "coordinates": [-139.98571634581444, -0.029811238584787056]}}, {"type": "Feature", "properties": {"norad_id": 57493, "name": "GALAXY 37 (G-37)", "group": "intelsat", "lat": -0.03658522080817624, "lon": -178.00881227052272, "alt_km": 35783.16793339576, "timestamp": "2025-12-02T15:49:06.851153+00:00", "meta": {"OBJECT_NAME": "GALAXY 37 (G-37)", "OBJECT_ID": "2023-112A", "EPOCH": "2025-12-01T21:46:02.612352", "MEAN_MOTION": 1.00271443, "ECCENTRICITY": 0.00023699, "INCLINATION": 0.0198, "RA_OF_ASC_NODE": 293.7772, "ARG_OF_PERICENTER": 321.1427, "MEAN_ANOMALY": 15.6168, "EPHEMERIS_TYPE": 0, "CLASSIFICATION_TYPE": "U", "NORAD_CAT_ID": 57493, "ELEMENT_SET_NO": 999, "REV_AT_EPOCH": 856, "BSTAR": 0, "MEAN_MOTION_DOT": 6.9e-07, "MEAN_MOTION_DDOT": 0}, "tle": {"line1": "1 57493U 23112A   25335.90697468  .00000069  00000+0  00000+0 0  9997", "line2": "2 57493   0.0198 293.7772 0002369 321.1427  15.6168  1.00271443  8563"}}, "geometry": {"type": "Point", "coordinates": [-178.00881227052272, -0.03658522080817624]}}]}